0 COSMOS 2251 DEB
1 34054U 93036JR  13281.96052760  .00004262  00000-0  11886-2 0  9571
2 34054 074.0448 104.1059 0037363 242.6017 241.0377 14.46184748244976
0 COSMOS 2251 DEB
1 34054U 93036JR  13283.96678903  .00004853  00000-0  13518-2 0  9587
2 34054 074.0448 100.3639 0037404 238.4221 246.1627 14.46198409245260
0 COSMOS 2251 DEB
1 34054U 93036JR  13286.17924919  .00004275  00000-0  11914-2 0  9591
2 34054 074.0444 096.2362 0037276 233.9538 244.7881 14.46216224245587
0 COSMOS 2251 DEB
1 34054U 93036JR  13288.51897069  .00006869  00000-0  19079-2 0  9609
2 34054 074.0444 091.8716 0037302 229.2785 186.0758 14.46239087245924
0 COSMOS 2251 DEB
1 34054U 93036JR  13289.91469049  .00006282  00000-0  17454-2 0  9612
2 34054 074.0448 089.2678 0037266 226.5160 252.6884 14.46251101246126
0 COSMOS 2251 DEB
1 34054U 93036JR  13292.12843811  .00005451  00000-0  15150-2 0  9621
2 34054 074.0456 085.1376 0037138 221.9952 258.5210 14.46275576246446
0 COSMOS 2251 DEB
1 34054U 93036JR  13294.13321940  .00007229  00000-0  20052-2 0  9631
2 34054 074.0461 081.3973 0037091 217.9869 256.4573 14.46296093246731
